H1 CPF  1  HTS 2022 11 15 12  8191 larets           NONE
H2  0304206 5557    27944 2022 11 15  0  0  0 2022 11 20  0  0  0   180 1 1  0 0 0
H5  0.0560 
H9 
10 0 59902  45000.00000  0   -4351105.090   -2888137.880   -4774714.106
10 0 59902  45180.00000  0   -5196025.423   -3041914.615   -3716860.486
10 0 59902  45360.00000  0   -5855403.055   -3065956.494   -2523640.607
10 0 59902  45540.00000  0   -6301762.550   -2964477.167   -1238391.064
10 0 59902  45720.00000  0   -6515486.060   -2746866.755      92071.297
10 0 59902  45900.00000  0   -6485711.657   -2427158.763    1419159.970
10 0 59902  46080.00000  0   -6210886.590   -2023297.298    2694322.764
10 0 59902  46260.00000  0   -5698935.258   -1556239.298    3870856.543
10 0 59902  46440.00000  0   -4967036.377   -1048938.586    4905651.481
10 0 59902  46620.00000  0   -4041016.016    -525263.929    5760785.810
10 0 59902  46800.00000  0   -2954401.883      -8908.819    6404911.076
10 0 59902  46980.00000  0   -1747174.318     477659.562    6814388.288
10 0 59902  47160.00000  0    -464268.420     914161.762    6974134.831
10 0 59902  47340.00000  0     846109.058    1283344.102    6878166.312
10 0 59902  47520.00000  0    2134292.646    1571664.420    6529824.934
10 0 59902  47700.00000  0    3351046.178    1769800.184    5941687.546
10 0 59902  47880.00000  0    4449466.236    1872959.713    5135151.185
10 0 59902  48060.00000  0    5386831.415    1880986.160    4139696.137
10 0 59902  48240.00000  0    6126330.401    1798250.913    2991840.959
10 0 59902  48420.00000  0    6638583.749    1633334.069    1733801.373
10 0 59902  48600.00000  0    6902880.441    1398505.975     411909.857
10 0 59902  48780.00000  0    6908060.975    1109035.409    -925148.469
10 0 59902  48960.00000  0    6652994.043     782360.310   -2228201.533
10 0 59902  49140.00000  0    6146620.673     437163.265   -3449464.197
10 0 59902  49320.00000  0    5407572.727      92408.180   -4544334.999
10 0 59902  49500.00000  0    4463391.267    -233609.494   -5473033.946
10 0 59902  49680.00000  0    3349402.736    -524149.857   -6202012.328
10 0 59902  49860.00000  0    2107322.087    -764812.877   -6705100.952
10 0 59902  50040.00000  0     783646.329    -944188.231   -6964367.869
10 0 59902  50220.00000  0    -572089.873   -1054348.806   -6970680.737
10 0 59902  50400.00000  0   -1909141.277   -1091172.173   -6723974.917
10 0 59902  50580.00000  0   -3177407.460   -1054484.175   -6233230.900
10 0 59902  50760.00000  0   -4329263.231    -948021.455   -5516164.561
10 0 59902  50940.00000  0   -5321320.781    -779216.854   -4598641.849
10 0 59902  51120.00000  0   -6116069.914    -558813.409   -3513812.941
10 0 59902  51300.00000  0   -6683334.388    -300319.820   -2300979.643
10 0 59902  51480.00000  0   -7001479.174     -19326.158   -1004217.013
10 0 59902  51660.00000  0   -7058306.760     267291.501     329212.680
10 0 59902  51840.00000  0   -6851579.034     542240.917    1650597.060
10 0 59902  52020.00000  0   -6389138.801     788711.613    2911581.463
10 0 59902  52200.00000  0   -5688618.105     991254.929    4065977.277
10 0 59902  52380.00000  0   -4776740.505    1136600.281    5071484.832
10 0 59902  52560.00000  0   -3688260.564    1214364.605    5891254.012
10 0 59902  52740.00000  0   -2464599.307    1217620.989    6495228.642
10 0 59902  52920.00000  0   -1152233.321    1143301.704    6861235.299
10 0 59902  53100.00000  0     199096.000     992418.152    6975776.135
10 0 59902  53280.00000  0    1538274.635     770087.283    6834513.052
10 0 59902  53460.00000  0    2814751.248     485364.039    6442440.471
10 0 59902  53640.00000  0    3980457.535     150883.179    5813738.962
10 0 59902  53820.00000  0    4991651.446    -217680.456    4971303.499
10 0 59902  54000.00000  0    5810612.417    -602315.548    3945949.565
10 0 59902  54180.00000  0    6407122.299    -983513.823    2775311.840
10 0 59902  54360.00000  0    6759661.035   -1341208.453    1502459.186
10 0 59902  54540.00000  0    6856247.162   -1655764.881     174275.025
10 0 59902  54720.00000  0    6694880.323   -1908975.687   -1160328.955
10 0 59902  54900.00000  0    6283551.706   -2085001.527   -2452288.693
10 0 59902  55080.00000  0    5639824.035   -2171206.330   -3654256.526
10 0 59902  55260.00000  0    4790013.107   -2158843.000   -4722372.625
10 0 59902  55440.00000  0    3768029.097   -2043557.858   -5617865.479
10 0 59902  55620.00000  0    2613941.664   -1825694.470   -6308420.509
10 0 59902  55800.00000  0    1372353.872   -1510386.731   -6769275.196
10 0 59902  55980.00000  0      90656.824   -1107443.132   -6984028.135
10 0 59902  56160.00000  0   -1182768.740    -631032.983   -6945147.609
10 0 59902  56340.00000  0   -2400342.231     -99187.277   -6654187.194
10 0 59902  56520.00000  0   -3517015.871     466872.320   -6121710.125
10 0 59902  56700.00000  0   -4491901.229    1043555.147   -5366931.503
10 0 59902  56880.00000  0   -5289753.638    1605850.800   -4417082.332
10 0 59902  57060.00000  0   -5882265.723    2128379.944   -3306496.389
10 0 59902  57240.00000  0   -6249115.393    2586505.623   -2075429.748
10 0 59902  57420.00000  0   -6378721.343    2957456.018    -768643.219
10 0 59902  57600.00000  0   -6268663.004    3221408.453     566213.312
10 0 59902  57780.00000  0   -5925730.940    3362476.218    1880356.422
10 0 59902  57960.00000  0   -5365594.339    3369544.900    3125686.299
10 0 59902  58140.00000  0   -4612103.667    3236912.576    4256583.210
10 0 59902  58320.00000  0   -3696263.492    2964698.197    5231606.244
10 0 59902  58500.00000  0   -2654930.875    2559000.143    6015020.435
10 0 59902  58680.00000  0   -1529302.522    2031800.614    6578101.123
10 0 59902  58860.00000  0    -363258.258    1400616.363    6900167.622
10 0 59902  59040.00000  0     798360.608     687912.824    6969319.597
10 0 59902  59220.00000  0    1911477.726     -79696.184    6782869.534
10 0 59902  59400.00000  0    2934459.066    -872438.840    6347460.649
10 0 59902  59580.00000  0    3829687.846   -1658538.445    5678864.318
10 0 59902  59760.00000  0    4564984.719   -2405491.018    4801450.353
10 0 59902  59940.00000  0    5114815.176   -3081420.976    3747336.760
10 0 59902  60120.00000  0    5461238.207   -3656461.790    2555236.068
10 0 59902  60300.00000  0    5594543.065   -4104094.278    1269021.703
10 0 59902  60480.00000  0    5513534.975   -4402374.566     -63926.639
10 0 59902  60660.00000  0    5225455.509   -4534984.772   -1394530.940
10 0 59902  60840.00000  0    4745537.844   -4492047.074   -2673894.777
10 0 59902  61020.00000  0    4096221.410   -4270656.070   -3855161.811
10 0 59902  61200.00000  0    3306076.149   -3875106.931   -4895264.578
10 0 59902  61380.00000  0    2408501.150   -3316814.706   -5756488.117
10 0 59902  61560.00000  0    1440273.522   -2613941.668   -6407788.885
10 0 59902  61740.00000  0     440023.639   -1790762.985   -6825841.933
10 0 59902  61920.00000  0    -553304.778    -876795.060   -6995797.760
10 0 59902  62100.00000  0   -1501946.025      94272.427   -6911735.837
10 0 59902  62280.00000  0   -2370711.281    1085801.470   -6576826.553
10 0 59902  62460.00000  0   -3128257.547    2059555.041   -6003205.396
10 0 59902  62640.00000  0   -3748193.703    2977135.000   -5211567.503
10 0 59902  62820.00000  0   -4209999.884    3801471.617   -4230482.643
10 0 59902  63000.00000  0   -4499724.002    4498312.895   -3095428.534
10 0 59902  63180.00000  0   -4610421.801    5037654.169   -1847566.006
10 0 59902  63360.00000  0   -4542324.374    5395045.710    -532285.487
10 0 59902  63540.00000  0   -4302716.834    5552715.084     802435.929
10 0 59902  63720.00000  0   -3905521.941    5500437.338    2107804.618
10 0 59902  63900.00000  0   -3370606.309    5236102.314    3336033.263
10 0 59902  64080.00000  0   -2722837.097    4765942.338    4442127.338
10 0 59902  64260.00000  0   -1990946.257    4104415.651    5385555.098
10 0 59902  64440.00000  0   -1206260.412    3273750.285    6131739.987
10 0 59902  64620.00000  0    -401357.017    2303169.998    6653316.944
10 0 59902  64800.00000  0     391288.198    1227842.373    6931113.323
10 0 59902  64980.00000  0    1140610.313      87592.670    6954836.912
10 0 59902  65160.00000  0    1818174.675   -1074573.253    6723453.750
10 0 59902  65340.00000  0    2399263.907   -2214091.792    6245250.693
10 0 59902  65520.00000  0    2863797.999   -3286560.361    5537574.289
10 0 59902  65700.00000  0    3197054.471   -4249493.609    4626242.753
10 0 59902  65880.00000  0    3390158.985   -5064049.368    3544639.336
10 0 59902  66060.00000  0    3440325.540   -5696652.740    2332503.600
10 0 59902  66240.00000  0    3350828.832   -6120438.231    1034455.766
10 0 59902  66420.00000  0    3130706.726   -6316432.040    -301689.373
10 0 59902  66600.00000  0    2794210.390   -6274413.337   -1626746.561
10 0 59902  66780.00000  0    2360023.822   -5993402.203   -2892044.984
10 0 59902  66960.00000  0    1850298.791   -5481748.483   -4051275.263
10 0 59902  67140.00000  0    1289558.864   -4756821.007   -5062213.593
10 0 59902  67320.00000  0     703542.778   -3844327.439   -5888242.351
10 0 59902  67500.00000  0     118045.732   -2777319.137   -6499623.819
10 0 59902  67680.00000  0    -442191.040   -1594932.436   -6874494.064
10 0 59902  67860.00000  0    -954495.673    -340925.432   -6999563.002
10 0 59902  68040.00000  0   -1399151.355     937935.002   -6870518.687
10 0 59902  68220.00000  0   -1760128.924    2193582.704   -6492137.539
10 0 59902  68400.00000  0   -2025646.208    3378412.163   -5878110.254
10 0 59902  68580.00000  0   -2188542.809    4447046.761   -5050587.463
10 0 59902  68760.00000  0   -2246459.645    5358064.249   -4039442.756
10 0 59902  68940.00000  0   -2201815.803    6075617.277   -2881257.673
10 0 59902  69120.00000  0   -2061578.074    6570879.868   -1618052.852
10 0 59902  69300.00000  0   -1836832.850    6823258.506    -295796.649
99
